[{"OBJECT_NAME":"STARLINK-30785","OBJECT_ID":"2023-167S","EPOCH":"2025-07-29T15:38:25.216800","MEAN_MOTION":15.0253868,"ECCENTRICITY":0.0001213,"INCLINATION":43.0036,"RA_OF_ASC_NODE":277.934,"ARG_OF_PERICENTER":270.7816,"MEAN_ANOMALY":89.2888,"EPHEMERIS_TYPE":0,"CLASSIFICATION_TYPE":"U","NORAD_CAT_ID":58191,"ELEMENT_SET_NO":999,"REV_AT_EPOCH":9740,"BSTAR":9.1264e-5,"MEAN_MOTION_DOT":1.029e-5,"MEAN_MOTION_DDOT":0},{"OBJECT_NAME":"STARLINK-30807","OBJECT_ID":"2023-167T","EPOCH":"2025-07-29T15:43:12.775008","MEAN_MOTION":15.02539113,"ECCENTRICITY":0.000165,"INCLINATION":43.0043,"RA_OF_ASC_NODE":277.9597,"ARG_OF_PERICENTER":281.0937,"MEAN_ANOMALY":78.972,"EPHEMERIS_TYPE":0,"CLASSIFICATION_TYPE":"U","NORAD_CAT_ID":58192,"ELEMENT_SET_NO":999,"REV_AT_EPOCH":9740,"BSTAR":-8.0237e-6,"MEAN_MOTION_DOT":-3.12e-6,"MEAN_MOTION_DDOT":0},{"OBJECT_NAME":"STARLINK-30822","OBJECT_ID":"2023-167U","EPOCH":"2025-07-29T12:22:11.204544","MEAN_MOTION":15.02540595,"ECCENTRICITY":0.0001769,"INCLINATION":43.0042,"RA_OF_ASC_NODE":278.6299,"ARG_OF_PERICENTER":283.0986,"MEAN_ANOMALY":76.9659,"EPHEMERIS_TYPE":0,"CLASSIFICATION_TYPE":"U","NORAD_CAT_ID":58193,"ELEMENT_SET_NO":999,"REV_AT_EPOCH":9738,"BSTAR":-5.5573e-7,"MEAN_MOTION_DOT":-2.11e-6,"MEAN_MOTION_DDOT":0},{"OBJECT_NAME":"STARLINK-30830","OBJECT_ID":"2023-167V","EPOCH":"2025-07-29T15:27:13.697856","MEAN_MOTION":15.02536441,"ECCENTRICITY":0.0001412,"INCLINATION":43.0023,"RA_OF_ASC_NODE":277.86,"ARG_OF_PERICENTER":273.4769,"MEAN_ANOMALY":86.5912,"EPHEMERIS_TYPE":0,"CLASSIFICATION_TYPE":"U","NORAD_CAT_ID":58194,"ELEMENT_SET_NO":999,"REV_AT_EPOCH":9740,"BSTAR":2.7931e-5,"MEAN_MOTION_DOT":1.74e-6,"MEAN_MOTION_DDOT":0},{"OBJECT_NAME":"STARLINK-30827","OBJECT_ID":"2023-167W","EPOCH":"2025-07-29T15:24:02.518848","MEAN_MOTION":15.02533225,"ECCENTRICITY":0.000157,"INCLINATION":43.0032,"RA_OF_ASC_NODE":277.8606,"ARG_OF_PERICENTER":273.8076,"MEAN_ANOMALY":86.2587,"EPHEMERIS_TYPE":0,"CLASSIFICATION_TYPE":"U","NORAD_CAT_ID":58195,"ELEMENT_SET_NO":999,"REV_AT_EPOCH":9740,"BSTAR":-2.3328e-5,"MEAN_MOTION_DOT":-5.19e-6,"MEAN_MOTION_DDOT":0},{"OBJECT_NAME":"STARLINK-30798","OBJECT_ID":"2023-167X","EPOCH":"2025-07-30T05:12:11.807712","MEAN_MOTION":15.02533632,"ECCENTRICITY":0.0001527,"INCLINATION":43.0036,"RA_OF_ASC_NODE":275.2907,"ARG_OF_PERICENTER":276.2625,"MEAN_ANOMALY":83.8043,"EPHEMERIS_TYPE":0,"CLASSIFICATION_TYPE":"U","NORAD_CAT_ID":58196,"ELEMENT_SET_NO":999,"REV_AT_EPOCH":9743,"BSTAR":4.1966e-5,"MEAN_MOTION_DOT":3.63e-6,"MEAN_MOTION_DDOT":0},{"OBJECT_NAME":"STARLINK-30762","OBJECT_ID":"2023-167Y","EPOCH":"2025-07-29T12:17:22.778016","MEAN_MOTION":15.02534727,"ECCENTRICITY":0.0001477,"INCLINATION":43.0039,"RA_OF_ASC_NODE":278.6014,"ARG_OF_PERICENTER":274.42,"MEAN_ANOMALY":85.6474,"EPHEMERIS_TYPE":0,"CLASSIFICATION_TYPE":"U","NORAD_CAT_ID":58197,"ELEMENT_SET_NO":999,"REV_AT_EPOCH":9738,"BSTAR":-1.1293e-5,"MEAN_MOTION_DOT":-3.56e-6,"MEAN_MOTION_DDOT":0},{"OBJECT_NAME":"STARLINK-30800","OBJECT_ID":"2023-170A","EPOCH":"2025-07-29T18:28:42.720096","MEAN_MOTION":15.02533071,"ECCENTRICITY":0.000139,"INCLINATION":43.0042,"RA_OF_ASC_NODE":327.4592,"ARG_OF_PERICENTER":271.0575,"MEAN_ANOMALY":89.0108,"EPHEMERIS_TYPE":0,"CLASSIFICATION_TYPE":"U","NORAD_CAT_ID":58206,"ELEMENT_SET_NO":999,"REV_AT_EPOCH":9674,"BSTAR":1.5495e-5,"MEAN_MOTION_DOT":6.0e-8,"MEAN_MOTION_DDOT":0},{"OBJECT_NAME":"STARLINK-30845","OBJECT_ID":"2023-170B","EPOCH":"2025-07-29T19:11:41.669376","MEAN_MOTION":15.02538981,"ECCENTRICITY":0.0001418,"INCLINATION":43.0033,"RA_OF_ASC_NODE":326.8453,"ARG_OF_PERICENTER":270.6147,"MEAN_ANOMALY":89.4533,"EPHEMERIS_TYPE":0,"CLASSIFICATION_TYPE":"U","NORAD_CAT_ID":58207,"ELEMENT_SET_NO":999,"REV_AT_EPOCH":9675,"BSTAR":2.9248e-5,"MEAN_MOTION_DOT":1.91e-6,"MEAN_MOTION_DDOT":0},{"OBJECT_NAME":"STARLINK-30841","OBJECT_ID":"2023-170C","EPOCH":"2025-07-29T15:31:38.180352","MEAN_MOTION":15.02534789,"ECCENTRICITY":0.0001572,"INCLINATION":43.005,"RA_OF_ASC_NODE":328.2381,"ARG_OF_PERICENTER":270.8412,"MEAN_ANOMALY":89.2251,"EPHEMERIS_TYPE":0,"CLASSIFICATION_TYPE":"U","NORAD_CAT_ID":58208,"ELEMENT_SET_NO":999,"REV_AT_EPOCH":9672,"BSTAR":1.1833e-5,"MEAN_MOTION_DOT":-4.4e-7,"MEAN_MOTION_DDOT":0},{"OBJECT_NAME":"STARLINK-30839","OBJECT_ID":"2023-170D","EPOCH":"2025-07-30T00:37:14.481120","MEAN_MOTION":15.02530704,"ECCENTRICITY":0.0001585,"INCLINATION":43.0045,"RA_OF_ASC_NODE":325.9349,"ARG_OF_PERICENTER":277.0557,"MEAN_ANOMALY":83.0105,"EPHEMERIS_TYPE":0,"CLASSIFICATION_TYPE":"U","NORAD_CAT_ID":58209,"ELEMENT_SET_NO":999,"REV_AT_EPOCH":9680,"BSTAR":-3.8122e-5,"MEAN_MOTION_DOT":-7.19e-6,"MEAN_MOTION_DDOT":0},{"OBJECT_NAME":"STARLINK-30846","OBJECT_ID":"2023-170E","EPOCH":"2025-07-29T15:07:39.358560","MEAN_MOTION":15.02541259,"ECCENTRICITY":0.0001507,"INCLINATION":43.0042,"RA_OF_ASC_NODE":328.1304,"ARG_OF_PERICENTER":276.9878,"MEAN_ANOMALY":83.0793,"EPHEMERIS_TYPE":0,"CLASSIFICATION_TYPE":"U","NORAD_CAT_ID":58210,"ELEMENT_SET_NO":999,"REV_AT_EPOCH":9672,"BSTAR":0.00011412,"MEAN_MOTION_DOT":1.338e-5,"MEAN_MOTION_DDOT":0},{"OBJECT_NAME":"STARLINK-30838","OBJECT_ID":"2023-170F","EPOCH":"2025-07-30T00:27:38.695968","MEAN_MOTION":15.02536295,"ECCENTRICITY":0.000147,"INCLINATION":43.0037,"RA_OF_ASC_NODE":325.8883,"ARG_OF_PERICENTER":264.5559,"MEAN_ANOMALY":95.5116,"EPHEMERIS_TYPE":0,"CLASSIFICATION_TYPE":"U","NORAD_CAT_ID":58211,"ELEMENT_SET_NO":999,"REV_AT_EPOCH":9680,"BSTAR":4.1783e-5,"MEAN_MOTION_DOT":3.61e-6,"MEAN_MOTION_DDOT":0},{"OBJECT_NAME":"STARLINK-30837","OBJECT_ID":"2023-170G","EPOCH":"2025-07-29T15:12:27.410112","MEAN_MOTION":15.02535354,"ECCENTRICITY":0.0001257,"INCLINATION":43.004,"RA_OF_ASC_NODE":328.1351,"ARG_OF_PERICENTER":264.3116,"MEAN_ANOMALY":95.7583,"EPHEMERIS_TYPE":0,"CLASSIFICATION_TYPE":"U","NORAD_CAT_ID":58212,"ELEMENT_SET_NO":999,"REV_AT_EPOCH":9672,"BSTAR":1.5779e-5,"MEAN_MOTION_DOT":1.0e-7,"MEAN_MOTION_DDOT":0},{"OBJECT_NAME":"STARLINK-30813","OBJECT_ID":"2023-170H","EPOCH":"2025-07-30T00:22:50.801664","MEAN_MOTION":15.02540767,"ECCENTRICITY":0.0001809,"INCLINATION":43.0045,"RA_OF_ASC_NODE":325.8618,"ARG_OF_PERICENTER":266.2284,"MEAN_ANOMALY":93.8352,"EPHEMERIS_TYPE":0,"CLASSIFICATION_TYPE":"U","NORAD_CAT_ID":58213,"ELEMENT_SET_NO":999,"REV_AT_EPOCH":9668,"BSTAR":3.0753e-5,"MEAN_MOTION_DOT":2.12e-6,"MEAN_MOTION_DDOT":0},{"OBJECT_NAME":"STARLINK-30805","OBJECT_ID":"2023-170J","EPOCH":"2025-07-29T16:19:25.188960","MEAN_MOTION":15.02533618,"ECCENTRICITY":0.0001504,"INCLINATION":43.0037,"RA_OF_ASC_NODE":327.6439,"ARG_OF_PERICENTER":270.0182,"MEAN_ANOMALY":90.0488,"EPHEMERIS_TYPE":0,"CLASSIFICATION_TYPE":"U","NORAD_CAT_ID":58214,"ELEMENT_SET_NO":999,"REV_AT_EPOCH":9673,"BSTAR":4.5835e-5,"MEAN_MOTION_DOT":4.15e-6,"MEAN_MOTION_DDOT":0},{"OBJECT_NAME":"STARLINK-30851","OBJECT_ID":"2023-170K","EPOCH":"2025-07-29T14:38:53.704320","MEAN_MOTION":15.02534435,"ECCENTRICITY":0.00014,"INCLINATION":43.0039,"RA_OF_ASC_NODE":327.9798,"ARG_OF_PERICENTER":273.1509,"MEAN_ANOMALY":86.9173,"EPHEMERIS_TYPE":0,"CLASSIFICATION_TYPE":"U","NORAD_CAT_ID":58215,"ELEMENT_SET_NO":999,"REV_AT_EPOCH":9662,"BSTAR":-2.1526e-6,"MEAN_MOTION_DOT":-2.33e-6,"MEAN_MOTION_DDOT":0},{"OBJECT_NAME":"STARLINK-30818","OBJECT_ID":"2023-170M","EPOCH":"2025-07-29T16:05:01.970880","MEAN_MOTION":15.02530653,"ECCENTRICITY":0.0001388,"INCLINATION":43.0041,"RA_OF_ASC_NODE":327.5684,"ARG_OF_PERICENTER":271.0721,"MEAN_ANOMALY":88.9962,"EPHEMERIS_TYPE":0,"CLASSIFICATION_TYPE":"U","NORAD_CAT_ID":58217,"ELEMENT_SET_NO":999,"REV_AT_EPOCH":9673,"BSTAR":0.00014545,"MEAN_MOTION_DOT":1.761e-5,"MEAN_MOTION_DDOT":0},{"OBJECT_NAME":"STARLINK-30794","OBJECT_ID":"2023-170N","EPOCH":"2025-07-30T00:32:24.479520","MEAN_MOTION":15.02555446,"ECCENTRICITY":0.0001293,"INCLINATION":43.0038,"RA_OF_ASC_NODE":325.8929,"ARG_OF_PERICENTER":272.8093,"MEAN_ANOMALY":87.2602,"EPHEMERIS_TYPE":0,"CLASSIFICATION_TYPE":"U","NORAD_CAT_ID":58218,"ELEMENT_SET_NO":999,"REV_AT_EPOCH":9680,"BSTAR":0.00023368,"MEAN_MOTION_DOT":2.956e-5,"MEAN_MOTION_DDOT":0},{"OBJECT_NAME":"STARLINK-30835","OBJECT_ID":"2023-170P","EPOCH":"2025-07-29T15:55:26.377536","MEAN_MOTION":15.02538634,"ECCENTRICITY":0.0001043,"INCLINATION":43.0032,"RA_OF_ASC_NODE":327.5176,"ARG_OF_PERICENTER":274.6724,"MEAN_ANOMALY":85.3999,"EPHEMERIS_TYPE":0,"CLASSIFICATION_TYPE":"U","NORAD_CAT_ID":58219,"ELEMENT_SET_NO":999,"REV_AT_EPOCH":9673,"BSTAR":4.161e-5,"MEAN_MOTION_DOT":3.59e-6,"MEAN_MOTION_DDOT":0},{"OBJECT_NAME":"STARLINK-30792","OBJECT_ID":"2023-170Q","EPOCH":"2025-07-29T15:50:38.880672","MEAN_MOTION":15.02534524,"ECCENTRICITY":0.000129,"INCLINATION":43.0036,"RA_OF_ASC_NODE":327.4913,"ARG_OF_PERICENTER":266.3498,"MEAN_ANOMALY":93.7196,"EPHEMERIS_TYPE":0,"CLASSIFICATION_TYPE":"U","NORAD_CAT_ID":58220,"ELEMENT_SET_NO":999,"REV_AT_EPOCH":9673,"BSTAR":3.2523e-5,"MEAN_MOTION_DOT":2.36e-6,"MEAN_MOTION_DDOT":0},{"OBJECT_NAME":"STARLINK-30836","OBJECT_ID":"2023-170R","EPOCH":"2025-07-29T15:45:50.545728","MEAN_MOTION":15.02544168,"ECCENTRICITY":0.0001201,"INCLINATION":43.004,"RA_OF_ASC_NODE":327.4669,"ARG_OF_PERICENTER":272.9593,"MEAN_ANOMALY":87.1112,"EPHEMERIS_TYPE":0,"CLASSIFICATION_TYPE":"U","NORAD_CAT_ID":58221,"ELEMENT_SET_NO":999,"REV_AT_EPOCH":9673,"BSTAR":7.2163e-5,"MEAN_MOTION_DOT":7.71e-6,"MEAN_MOTION_DDOT":0},{"OBJECT_NAME":"STARLINK-30855","OBJECT_ID":"2023-170S","EPOCH":"2025-07-29T15:26:50.636832","MEAN_MOTION":15.02540602,"ECCENTRICITY":0.0001542,"INCLINATION":43.0041,"RA_OF_ASC_NODE":328.2105,"ARG_OF_PERICENTER":275.5938,"MEAN_ANOMALY":84.4728,"EPHEMERIS_TYPE":0,"CLASSIFICATION_TYPE":"U","NORAD_CAT_ID":58222,"ELEMENT_SET_NO":999,"REV_AT_EPOCH":9672,"BSTAR":5.2705e-5,"MEAN_MOTION_DOT":5.08e-6,"MEAN_MOTION_DDOT":0}]
